0 SL-14 R/B
1 11672U 80005B   13282.10208257  .00000470  00000-0  49735-4 0  8195
2 11672 082.5140 270.0754 0018757 106.8648 009.3924 14.86837519823142
0 SL-14 R/B
1 11672U 80005B   13283.11186937  .00000443  00000-0  46709-4 0  8207
2 11672 082.5139 269.1236 0018769 103.8192 014.0884 14.86838897823292
0 SL-14 R/B
1 11672U 80005B   13284.12368831  .00000476  00000-0  50478-4 0  8219
2 11672 082.5140 268.1699 0018753 100.7706 029.6638 14.86839734823443
0 SL-14 R/B
1 11672U 80005B   13285.47392464  .00000408  00000-0  42874-4 0  8224
2 11672 082.5142 266.8972 0018735 096.6971 056.5686 14.86840662823647
0 SL-14 R/B
1 11672U 80005B   13286.48269172  .00000443  00000-0  46768-4 0  8231
2 11672 082.5143 265.9462 0018715 093.6472 055.8283 14.86841361823791
0 SL-14 R/B
1 11672U 80005B   13287.49141670  .00000466  00000-0  49362-4 0  8244
2 11672 082.5145 264.9953 0018688 090.5332 054.9270 14.86842543823943
0 SL-14 R/B
1 11672U 80005B   13288.75334726  .00000587  00000-0  62845-4 0  8256
2 11672 082.5149 263.8058 0018645 086.6782 329.2539 14.86844500824132
0 SL-14 R/B
1 11672U 80005B   13289.76278220  .00000594  00000-0  63633-4 0  8269
2 11672 082.5151 262.8542 0018611 083.6457 332.0842 14.86845729824280
0 SL-14 R/B
1 11672U 80005B   13291.12105104  .00000607  00000-0  65160-4 0  8275
2 11672 082.5154 261.5740 0018562 079.5116 042.0484 14.86846994824487
0 SL-14 R/B
1 11672U 80005B   13292.13060778  .00000644  00000-0  69256-4 0  8286
2 11672 082.5156 260.6226 0018521 076.4242 045.5925 14.86847992824633
0 SL-14 R/B
1 11672U 80005B   13293.14097266  .00000679  00000-0  73199-4 0  8290
2 11672 082.5156 259.6704 0018499 073.3167 053.4846 14.86849216824785
0 SL-14 R/B
1 11672U 80005B   13294.48894898  .00000699  00000-0  75354-4 0  8303
2 11672 082.5157 258.4001 0018399 069.1849 068.4067 14.86851187824985
0 SL-14 R/B
1 11672U 80005B   13295.49872814  .00000739  00000-0  79836-4 0  8314
2 11672 082.5158 257.4486 0018343 066.0685 073.1846 14.86852503825134
